     3.02           N: GNSS NAV DATA    E: GALILEO          RINEX VERSION / TYPE                                                
Версия от 220825                        20240223 06:24:23UTCPGM / RUN BY / DATE                                                 
GAUT  0.2793967724D-08-0.177635684D-14 345600 2302          TIME SYSTEM CORR
                                                            END OF HEADER                                                       
E04 2024 02 22 23 30 00-0.333587580826D-03-0.886757334229D-11 0.000000000000D+00
     0.770000000000D+02-0.151562500000D+03 0.286690513239D-08-0.174920209192D+01
    -0.711530447006D-05 0.265508773737D-03 0.952184200287D-05 0.544063290405D+04
     0.430200000000D+06 0.167638063431D-07-0.398889242538D+00 0.111758708954D-07
     0.961000398164D+00 0.136937500000D+03-0.155877101145D+01-0.549522889834D-08
    -0.197151069276D-09 0.258000000000D+03 0.230200000000D+04 0.000000000000D+00
     0.312000000000D+01 0.000000000000D+00-0.325962901115D-08 0.000000000000D+00
     0.430900000000D+06
E04 2024 02 22 23 30 00-0.333587755449D-03-0.886757334229D-11 0.000000000000D+00
     0.770000000000D+02-0.151562500000D+03 0.286690513239D-08-0.174920209192D+01
    -0.711530447006D-05 0.265508773737D-03 0.952184200287D-05 0.544063290405D+04
     0.430200000000D+06 0.167638063431D-07-0.398889242538D+00 0.111758708954D-07
     0.961000398164D+00 0.136937500000D+03-0.155877101145D+01-0.549522889834D-08
    -0.197151069276D-09 0.517000000000D+03 0.230200000000D+04 0.000000000000D+00
     0.312000000000D+01 0.000000000000D+00-0.325962901115D-08-0.372529029846D-08
     0.430200000000D+06
E07 2024 02 22 23 30 00-0.105197192170D-03-0.206057393370D-11 0.000000000000D+00
     0.770000000000D+02-0.193343750000D+03 0.277868717205D-08 0.226365843217D-01
    -0.902265310287D-05 0.258475891314D-03 0.102687627077D-04 0.544062331009D+04
     0.430200000000D+06 0.465661287308D-07-0.398939786358D+00 0.372529029846D-08
     0.961004260268D+00 0.121843750000D+03-0.953632225467D+00-0.546522764867D-08
    -0.262868092368D-09 0.258000000000D+03 0.230200000000D+04 0.000000000000D+00
     0.312000000000D+01 0.000000000000D+00 0.535510480404D-08 0.000000000000D+00
     0.430900000000D+06
E07 2024 02 22 23 30 00-0.105196377262D-03-0.206057393370D-11 0.000000000000D+00
     0.770000000000D+02-0.193343750000D+03 0.277868717205D-08 0.226365843217D-01
    -0.902265310287D-05 0.258475891314D-03 0.102687627077D-04 0.544062331009D+04
     0.430200000000D+06 0.465661287308D-07-0.398939786358D+00 0.372529029846D-08
     0.961004260268D+00 0.121843750000D+03-0.953632225467D+00-0.546522764867D-08
    -0.262868092368D-09 0.517000000000D+03 0.230200000000D+04 0.000000000000D+00
     0.312000000000D+01 0.000000000000D+00 0.535510480404D-08 0.605359673500D-08
     0.430200000000D+06
E09 2024 02 22 23 30 00-0.345766951796D-03-0.136708422360D-10 0.000000000000D+00
     0.770000000000D+02-0.154000000000D+03 0.278654464220D-08 0.270736538137D+01
    -0.730529427528D-05 0.257403007708D-03 0.103544443846D-04 0.544061569405D+04
     0.430200000000D+06 0.447034835815D-07-0.399460677358D+00-0.745058059692D-08
     0.966868819430D+00 0.123031250000D+03-0.491941328817D+00-0.540701093799D-08
    -0.252867675811D-09 0.258000000000D+03 0.230200000000D+04 0.000000000000D+00
     0.312000000000D+01 0.000000000000D+00 0.931322574616D-09 0.000000000000D+00
     0.430864000000D+06
E09 2024 02 22 23 30 00-0.345766544342D-03-0.136708422360D-10 0.000000000000D+00
     0.770000000000D+02-0.154000000000D+03 0.278654464220D-08 0.270736538137D+01
    -0.730529427528D-05 0.257403007708D-03 0.103544443846D-04 0.544061569405D+04
     0.430200000000D+06 0.447034835815D-07-0.399460677358D+00-0.745058059692D-08
     0.966868819430D+00 0.123031250000D+03-0.491941328817D+00-0.540701093799D-08
    -0.252867675811D-09 0.517000000000D+03 0.230200000000D+04 0.000000000000D+00
     0.312000000000D+01 0.000000000000D+00 0.931322574616D-09 0.931322574616D-09
     0.430200000000D+06
E10 2024 02 22 23 30 00-0.604018277954D-03-0.292743607133D-11 0.000000000000D+00
     0.770000000000D+02 0.160437500000D+03 0.252974823131D-08-0.212977973870D+01
     0.754371285438D-05 0.675264745951D-04 0.701472163200D-05 0.544061311912D+04
     0.430200000000D+06 0.372529029846D-08-0.249479274611D+01 0.484287738800D-07
     0.100012115657D+01 0.210343750000D+03 0.553319075023D+00-0.537950979246D-08
     0.332156692802D-09 0.258000000000D+03 0.230200000000D+04 0.000000000000D+00
     0.312000000000D+01 0.000000000000D+00 0.186264514923D-08 0.000000000000D+00
     0.431150000000D+06
E10 2024 02 22 23 30 00-0.604017288424D-03-0.292743607133D-11 0.000000000000D+00
     0.770000000000D+02 0.160437500000D+03 0.252974823131D-08-0.212977973870D+01
     0.754371285438D-05 0.675264745951D-04 0.701472163200D-05 0.544061311912D+04
     0.430200000000D+06 0.372529029846D-08-0.249479274611D+01 0.484287738800D-07
     0.100012115657D+01 0.210343750000D+03 0.553319075023D+00-0.537950979246D-08
     0.332156692802D-09 0.517000000000D+03 0.230200000000D+04 0.000000000000D+00
     0.312000000000D+01 0.000000000000D+00 0.186264514923D-08 0.256113708019D-08
     0.430200000000D+06
E11 2024 02 22 23 30 00 0.322959828190D-02-0.265742983174D-10-0.520417042793D-17
     0.770000000000D+02 0.166750000000D+03 0.259796535854D-08-0.236399654830D+01
     0.785104930401D-05 0.411294400692D-03 0.670365989208D-05 0.544060603523D+04
     0.430200000000D+06 0.316649675369D-07-0.249161923646D+01 0.223517417908D-07
     0.997153915440D+00 0.215031250000D+03 0.361030651816D+00-0.540236788745D-08
     0.322870591713D-09 0.258000000000D+03 0.230200000000D+04 0.000000000000D+00
     0.312000000000D+01 0.000000000000D+00-0.118743628263D-07 0.000000000000D+00
     0.430900000000D+06
E11 2024 02 22 23 30 00 0.322959752520D-02-0.265458766080D-10-0.520417042793D-17
     0.770000000000D+02 0.166750000000D+03 0.259796535854D-08-0.236399654830D+01
     0.785104930401D-05 0.411294400692D-03 0.670365989208D-05 0.544060603523D+04
     0.430200000000D+06 0.316649675369D-07-0.249161923646D+01 0.223517417908D-07
     0.997153915440D+00 0.215031250000D+03 0.361030651816D+00-0.540236788745D-08
     0.322870591713D-09 0.517000000000D+03 0.230200000000D+04 0.000000000000D+00
     0.312000000000D+01 0.000000000000D+00-0.118743628263D-07-0.130385160446D-07
     0.430200000000D+06
E12 2024 02 22 23 30 00-0.917943136301D-03-0.164135371961D-10 0.000000000000D+00
     0.770000000000D+02 0.160187500000D+03 0.256510684700D-08-0.109977890900D+01
     0.753253698349D-05 0.466315308586D-03 0.686012208462D-05 0.544061572456D+04
     0.430200000000D+06-0.223517417908D-07-0.249161875808D+01 0.484287738800D-07
     0.997165874796D+00 0.212218750000D+03-0.101853304267D+00-0.539808199464D-08
     0.340728478423D-09 0.258000000000D+03 0.230200000000D+04 0.000000000000D+00
     0.312000000000D+01 0.000000000000D+00-0.931322574616D-08 0.000000000000D+00
     0.430900000000D+06
E12 2024 02 22 23 30 00-0.917943019886D-03-0.163993263413D-10 0.000000000000D+00
     0.770000000000D+02 0.160187500000D+03 0.256510684700D-08-0.109977890900D+01
     0.753253698349D-05 0.466315308586D-03 0.686012208462D-05 0.544061572456D+04
     0.430200000000D+06-0.223517417908D-07-0.249161875808D+01 0.484287738800D-07
     0.997165874796D+00 0.212218750000D+03-0.101853304267D+00-0.539808199464D-08
     0.340728478423D-09 0.517000000000D+03 0.230200000000D+04 0.000000000000D+00
     0.312000000000D+01 0.000000000000D+00-0.931322574616D-08-0.931322574616D-08
     0.430200000000D+06
E13 2024 02 22 23 30 00-0.202734954655D-04-0.127897692437D-12 0.000000000000D+00
     0.770000000000D+02 0.189625000000D+03 0.251189034460D-08 0.184411818014D+01
     0.895559787750D-05 0.348937814124D-03 0.766478478909D-05 0.544061603165D+04
     0.430200000000D+06 0.596046447754D-07-0.249293176509D+01-0.558793544769D-08
     0.100026175763D+01 0.193375000000D+03-0.678154082080D+00-0.541522556588D-08
     0.369301097159D-09 0.258000000000D+03 0.230200000000D+04 0.000000000000D+00
     0.312000000000D+01 0.000000000000D+00 0.465661287308D-08 0.000000000000D+00
     0.430864000000D+06
E13 2024 02 22 23 30 00-0.202730880119D-04-0.142108547152D-12 0.000000000000D+00
     0.770000000000D+02 0.189625000000D+03 0.251189034460D-08 0.184411818014D+01
     0.895559787750D-05 0.348937814124D-03 0.766478478909D-05 0.544061603165D+04
     0.430200000000D+06 0.596046447754D-07-0.249293176509D+01-0.558793544769D-08
     0.100026175763D+01 0.193375000000D+03-0.678154082080D+00-0.541522556588D-08
     0.369301097159D-09 0.517000000000D+03 0.230200000000D+04 0.000000000000D+00
     0.312000000000D+01 0.000000000000D+00 0.465661287308D-08 0.488944351673D-08
     0.430200000000D+06
E18 2024 02 22 23 30 00 0.357397715561D-03 0.432720526078D-10 0.000000000000D+00
     0.770000000000D+02-0.286250000000D+02 0.438482550272D-08 0.382437887559D+00
    -0.183098018169D-05 0.160715757287D+00 0.635161995888D-05 0.528934569740D+04
     0.430200000000D+06 0.279769301414D-05 0.279811654767D+01 0.247545540333D-05
     0.868832442519D+00 0.189187500000D+03 0.256326026731D+01-0.540915388440D-08
    -0.178328856684D-08 0.258000000000D+03 0.230200000000D+04 0.000000000000D+00
     0.312000000000D+01 0.100000000000D+01-0.209547579288D-08 0.000000000000D+00
     0.430940000000D+06
E18 2024 02 22 23 30 00 0.357397308107D-03 0.432720526078D-10 0.000000000000D+00
     0.770000000000D+02-0.286250000000D+02 0.438482550272D-08 0.382437887559D+00
    -0.183098018169D-05 0.160715757287D+00 0.635161995888D-05 0.528934569740D+04
     0.430200000000D+06 0.279769301414D-05 0.279811654767D+01 0.247545540333D-05
     0.868832442519D+00 0.189187500000D+03 0.256326026731D+01-0.540915388440D-08
    -0.178328856684D-08 0.517000000000D+03 0.230200000000D+04 0.000000000000D+00
     0.312000000000D+01 0.100000000000D+01-0.209547579288D-08-0.279396772385D-08
     0.430865000000D+06
